STARLINK-11117 [DTC]    
1 59761U 24091J   24172.40298496  .00029833  00000+0  18550-3 0  9998
2 59761  53.1602  59.1010 0000685  54.9519 305.1566 15.76745109  6989
STARLINK-11110 [DTC]    
1 59762U 24091K   24172.40097709  .00098250  00000+0  59699-3 0  9991
2 59762  53.1597  59.0856 0001388 100.1801 259.9377 15.76743223  6980
STARLINK-11104 [DTC]    
1 59763U 24091L   24172.39896006  .00063946  00000+0  39040-3 0  9999
2 59763  53.1593  59.0728 0001245  89.9375 270.1789 15.76807768  6984
STARLINK-11111 [DTC]    
1 59764U 24091M   24172.20459873  .00081533  00000+0  49073-3 0  9996
2 59764  53.1604  59.9871 0002333  72.8470 287.2806 15.77032071  6956
STARLINK-11106 [DTC]    
1 59765U 24091N   24172.39693804  .00024940  00000+0  15524-3 0  9994
2 59765  53.1605  59.0576 0000955 170.4339 189.6701 15.76829824  6989
STARLINK-31739          
1 59766U 24091P   24172.40273530  .00004343  00000+0  11853-3 0  9993
2 59766  53.1600  62.7274 0001075  74.2074 285.9050 15.39611288  6936
STARLINK-31828          
1 59767U 24091Q   24172.58335648  .00064427  00000+0  16087-2 0  9994
2 59767  53.1593  61.7749 0001123  82.4213 250.8895 15.39589236  6108
STARLINK-31826          
1 59768U 24091R   24172.42595530 -.00001748  00000+0 -33760-4 0  9994
2 59768  53.1617  62.8751 0000295 207.9596 152.1394 15.39610271  6931
STARLINK-31830          
1 59769U 24091S   24172.41698796 -.00001423  00000+0 -25623-4 0  9991
2 59769  53.1610  62.8181 0000474  59.8998 300.2054 15.39616890  6933
STARLINK-31829          
1 59770U 24091T   24171.92057093 -.00002565  00000+0 -54203-4 0  9991
2 59770  53.1614  65.4087 0000967  63.5125 296.5979 15.39608013  6856
STARLINK-31786          
1 59771U 24091U   24171.23923191  .00068731  00000+0  17086-2 0  9998
2 59771  53.1607  68.2654 0001779  71.0773 289.0425 15.39694391  6706
STARLINK-31835          
1 59772U 24091V   24172.58335648  .00047589  00000+0  11930-2 0  9992
2 59772  53.1594  61.6707 0001000  82.9984 301.8009 15.39602143  6109
STARLINK-31363          
1 59782U 24093A   24172.29708167 -.00001264  00000+0 -23005-4 0  9993
2 59782  42.9985 179.7455 0001134 273.4827  86.5900 15.40687730  6421
STARLINK-31868          
1 59783U 24093B   24172.08237332  .00108956  00000+0  78570-3 0  9992
2 59783  42.9965 179.8488 0001688 288.3527  71.7158 15.72464880  6406
STARLINK-31848          
1 59784U 24093C   24172.39566686 -.00001958  00000+0 -39641-4 0  9997
2 59784  42.9964 180.5425 0001227 284.1168  75.9552 15.40685955  6429
STARLINK-31890          
1 59785U 24093D   24172.39342431  .00006651  00000+0  16626-3 0  9998
2 59785  42.9994 180.5242 0001506 260.0482 100.0205 15.40712858  6420
STARLINK-31862          
1 59786U 24093E   24172.38894264  .00001052  00000+0  32444-4 0  9991
2 59786  43.0033 180.4900 0001689 289.7446  70.3228 15.40702612  6428
STARLINK-31870          
1 59787U 24093F   24172.39118779  .00002404  00000+0  64808-4 0  9994
2 59787  43.0001 180.5093 0002005 315.7237  44.3458 15.40695128  6428
STARLINK-31888          
1 59788U 24093G   24172.31963152  .00000179  00000+0  11552-4 0  9995
2 59788  42.9980 180.8284 0001691 261.4031  98.6634 15.40702536  6416
STARLINK-31863          
1 59789U 24093H   24172.45154444  .00021438  00000+0  51885-3 0  9990
2 59789  42.9986 180.1006 0000660 235.5328 124.5467 15.40709912  6434
STARLINK-31873          
1 59790U 24093J   24172.44706729  .00004339  00000+0  11115-3 0  9993
2 59790  43.0046 180.0642 0001662 254.3341 105.7333 15.40679649  6433
STARLINK-31865          
1 59791U 24093K   24172.44480970 -.00001524  00000+0 -29211-4 0  9993
2 59791  42.9997 180.0473 0001365 273.1733  86.8968 15.40709707  6435
STARLINK-31893          
1 59792U 24093L   24172.44257874 -.00006420  00000+0 -14663-3 0  9993
2 59792  43.0005 180.0291 0000927 257.4558 102.6195 15.40685361  6448
STARLINK-31901          
1 59793U 24093M   24172.37550093 -.00003590  00000+0 -78691-4 0  9992
2 59793  43.0016 180.3856 0001349 288.2229  71.8480 15.40706865  6422
STARLINK-31823          
1 59794U 24093N   24172.58335648  .00038255  00000+0  91876-3 0  9996
2 59794  42.9988 179.1584 0001038 269.1171 177.6211 15.40689849  6139
STARLINK-31916          
1 59795U 24093P   24172.58335648  .00048080  00000+0  11519-2 0  9999
2 59795  42.9987 179.1279 0000813 304.5561 154.5525 15.40676674  6074
STARLINK-31907          
1 59797U 24093R   24172.58335648  .00035880  00000+0  86257-3 0  9997
2 59797  42.9988 179.0967 0001903 257.2470 214.4317 15.40685007  6068
STARLINK-31687          
1 59798U 24093S   24172.58335648  .00067733  00000+0  16158-2 0  9992
2 59798  42.9994 178.8535 0001412 275.1637 295.9563 15.40673179  6135
STARLINK-31810          
1 59799U 24093T   24172.58335648  .00027235  00000+0  65702-3 0  9996
2 59799  42.9995 178.9452 0001960 278.3193 255.4311 15.40694479  6077
STARLINK-31812          
1 59800U 24093U   24172.58335648  .00034092  00000+0  82046-3 0  9998
2 59800  42.9989 179.0666 0001342 277.6089 206.4207 15.40673384  6131
STARLINK-31815          
1 59801U 24093V   24172.58335648  .00032215  00000+0  77580-3 0  9991
2 59801  42.9990 179.0361 0000845 262.9084 233.6104 15.40676718  6069
STARLINK-31814          
1 59802U 24093W   24172.58335648 -.00913609  00000+0 -17178-1 0  9994
2 59802  42.9991 178.0231 0000822 286.2480 265.0734 15.50164287  6062
STARLINK-31794          
1 59803U 24093X   24172.58335648 -.00013420  00000+0 -31494-3 0  9996
2 59803  42.9996 178.8839 0000383 234.9718 323.8354 15.40666665  6131
STARLINK-31824          
1 59804U 24093Y   24172.58335648  .00023145  00000+0  55945-3 0  9997
2 59804  42.9994 178.9151 0001402 256.9835 289.2534 15.40709919  6062
STARLINK-31947          
1 59835U 24097A   24172.62096166 -.00002143  00000+0 -44070-4 0  9994
2 59835  42.9965 246.1049 0001608 183.5200 176.5646 15.40687836  5689
STARLINK-31929          
1 59836U 24097B   24173.00001157  .00030653  00000+0  73867-3 0  9994
2 59836  42.9993 243.5049 0001620 263.5588 215.6758 15.40676838  5706
STARLINK-31927          
1 59837U 24097C   24172.58335648  .00035329  00000+0  84949-3 0  9990
2 59837  42.9992 246.1194 0001624 270.7743 327.6410 15.40685215  5712
STARLINK-31855          
1 59838U 24097D   24173.00001157 -.02179484  00000+0 -49073-1 0  9996
2 59838  42.9991 243.3201 0000918 269.9475 284.8291 15.46213757  5701
STARLINK-31887          
1 59839U 24097E   24172.61199355 -.00004359  00000+0 -97217-4 0  9993
2 59839  42.9996 246.0417 0001142 273.0141  87.0584 15.40680561  5637
STARLINK-31925          
1 59840U 24097F   24173.00001157  .00014155  00000+0  34565-3 0  9990
2 59840  42.9990 243.4132 0001139 270.9592 245.6205 15.40685943  5697
STARLINK-31852          
1 59841U 24097G   24172.57659618  .00002714  00000+0  52061-4 0  9993
2 59841  42.9982 245.7688 0001371 284.9856  75.0852 15.50578141  5680
STARLINK-31906          
1 59842U 24097H   24172.58335648  .00070242  00000+0  16750-2 0  9993
2 59842  42.9996 246.0264 0001416 278.7243 357.0065 15.40669884  5752
STARLINK-31857          
1 59843U 24097J   24172.25401190  .00001923  00000+0  38586-4 0  9997
2 59843  42.9991 247.6536 0002396 323.5954  36.4742 15.50587196  5636
STARLINK-31851          
1 59844U 24097K   24172.29231272  .00001897  00000+0  52669-4 0  9992
2 59844  43.0004 247.9408 0002592 297.1069  62.9523 15.40707682  5618
STARLINK-31903          
1 59845U 24097L   24173.00001157 -.00667377  00000+0 -16932-1 0  9993
2 59845  42.9991 243.3513 0001696 268.8234 272.4025 15.41148119  5746
STARLINK-31922          
1 59846U 24097M   24172.63973147 -.00000067  00000+0  46714-5 0  9990
2 59846  42.9982 245.3811 0001093 285.0032  75.0707 15.50575464  5648
STARLINK-31889          
1 59847U 24097N   24173.00001157  .00022565  00000+0  54625-3 0  9990
2 59847  42.9995 243.5920 0001783 265.5263 176.4041 15.40677225  5700
STARLINK-31859          
1 59848U 24097P   24172.57490248 -.00042479  00000+0 -72694-3 0  9999
2 59848  43.0044 245.7562 0004580 306.6578  53.3861 15.50381266  5631
STARLINK-31895          
1 59849U 24097Q   24172.29007625  .00005957  00000+0  14974-3 0  9997
2 59849  43.0037 247.9276 0003585 299.8249  60.2251 15.40705374  5585
STARLINK-31899          
1 59850U 24097R   24172.67456957  .00000904  00000+0  28891-4 0  9998
2 59850  42.9988 245.6482 0001040 278.1754  81.8985 15.40698171  5645
STARLINK-31896          
1 59851U 24097S   24172.67232652 -.00001521  00000+0 -29135-4 0  9993
2 59851  42.9993 245.6340 0002310 289.8739  70.1868 15.40702607  5694
STARLINK-31897          
1 59852U 24097T   24172.27889524  .00015162  00000+0  36997-3 0  9993
2 59852  42.9943 247.8300 0002194 163.9907 196.1019 15.40660748  5583
STARLINK-31892          
1 59853U 24097U   24173.00001157 -.00047551  00000+0 -11375-2 0  9995
2 59853  42.9995 243.5605 0001620 260.6024 193.7672 15.40716279  5703
STARLINK-31891          
1 59854U 24097V   24172.58335648  .00036981  00000+0  88960-3 0  9991
2 59854  42.9996 245.9343 0000861 290.5519  22.5734 15.40654985  5755
STARLINK-31882          
1 59855U 24097W   24173.00001157 -.00113541  00000+0 -27437-2 0  9996
2 59855  42.9992 243.4699 0001573 264.6832 226.9339 15.40783452  5753
STARLINK-31691          
1 59856U 24097X   24172.63716382  .00003090  00000+0  58482-4 0  9999
2 59856  42.9994 245.3575 0001540 282.7238  77.3450 15.50578133  5644
STARLINK-31569          
1 59857U 24097Y   24172.58335648  .00031476  00000+0  75823-3 0  9992
2 59857  42.9993 246.0537 0001279 277.2385 346.0853 15.40677283  5751
STARLINK-31654          
1 59858U 24098A   24172.69423707  .00000359  00000+0  15858-4 0  9999
2 59858  42.9962 254.5761 0000736 219.0233 141.0570 15.40690356  5546
STARLINK-31442          
1 59859U 24098B   24173.00001157 -.00007593  00000+0 -17472-3 0  9999
2 59859  42.9992 251.4956 0001210 246.3507 186.7002 15.40696440  4957
